{
    "CCSDS_OMM_VERS": "3.0",
    "COMMENT": "GENERATED VIA SPACE-TRACK.ORG API",
    "CREATION_DATE": "2025-11-24T07:26:19",
    "ORIGINATOR": "18 SPCS",
    "OBJECT_NAME": "COSMOS 2461 (GLONASS)",
    "OBJECT_ID": "2010-007B",
    "CENTER_NAME": "EARTH",
    "REF_FRAME": "TEME",
    "TIME_SYSTEM": "UTC",
    "MEAN_ELEMENT_THEORY": "SGP4",
    "EPOCH": "2025-11-24T03:50:17.488032",
    "MEAN_MOTION": "2.13107015",
    "ECCENTRICITY": "0.00204230",
    "INCLINATION": "65.5547",
    "RA_OF_ASC_NODE": "321.4716",
    "ARG_OF_PERICENTER": "354.8760",
    "MEAN_ANOMALY": "108.2883",
    "EPHEMERIS_TYPE": "0",
    "CLASSIFICATION_TYPE": "U",
    "NORAD_CAT_ID": "36401",
    "ELEMENT_SET_NO": "999",
    "REV_AT_EPOCH": "12245",
    "BSTAR": "0.00000000000000",
    "MEAN_MOTION_DOT": "-0.00000026",
    "MEAN_MOTION_DDOT": "0.0000000000000",
    "SEMIMAJOR_AXIS": "25507.624",
    "PERIOD": "675.717",
    "APOAPSIS": "19181.583",
    "PERIAPSIS": "19077.395",
    "OBJECT_TYPE": "PAYLOAD",
    "RCS_SIZE": "LARGE",
    "COUNTRY_CODE": "CIS",
    "LAUNCH_DATE": "2010-03-01",
    "SITE": "TTMTR",
    "DECAY_DATE": null,
    "FILE": "4896917",
    "GP_ID": "303364758",
    "TLE_LINE0": "0 COSMOS 2461 (GLONASS)",
    "TLE_LINE1": "1 36401U 10007B   25328.15992463 -.00000026  00000-0  00000+0 0  9999",
    "TLE_LINE2": "2 36401  65.5547 321.4716 0020423 354.8760 108.2883  2.13107015122450"
}